ASTROCAST-0402          
1 55109U 23001DE  26068.80661100  .00010930  00000+0  41835-3 0  9996
2 55109  97.5556 160.6821 0004209 216.6984 143.3966 15.26734153129364
STARLINK-31382          
1 59184U 24045G   26068.08901593 -.00001473  00000+0 -43998-4 0  9992
2 59184  43.0001  95.5801 0000545 255.3897 104.6894 15.27588121113072
